# last update : 20.11.2023 14:44:05 UTC
JASON-3                 
1 41240U 16002A   23323.93037461 -.00000028  00000+0  14220-3 0  9998
2 41240  66.0414 288.0380 0007878 269.7474  90.2639 12.80928127366578

SARAL                   
1 39086U 13009A   23323.88693372  .00000102  00000+0  53776-4 0  9992
2 39086  98.5464 146.9507 0002071 154.4750 205.6537 14.32297332560973

SENTINEL-3A             
1 41335U 16011A   23324.12541673  .00000113  00000+0  64561-4 0  9998
2 41335  98.6209  28.9080 0001046  84.3255 275.8045 14.26737748404016

SENTINEL-3B             
1 43437U 18039A   23323.88804515  .00000265  00000+0  12743-3 0  9996
2 43437  98.6264  28.7814 0001262 108.8979 251.2338 14.26733072290045

HAIYANG-2B              
1 43655U 18081A   23324.13260930 -.00000004  00000+0  38858-4 0  9999
2 43655  99.3403 330.6287 0000472 183.7810 176.3338 13.79304214255336

CFOSAT                  
1 43662U 18083A   23324.10508746  .00003063  00000+0  16151-3 0  9994
2 43662  97.3891 339.3333 0001274  90.3267 269.8112 15.16301402280066

CRYOSAT 2               
1 36508U 10013A   23323.87471989  .00000158  00000+0  38540-4 0  9990
2 36508  92.0343  50.0477 0001048 295.4488  64.6611 14.51899037721642

SENTINEL-6              
1 46984U 20086A   23323.89506190 -.00000046  00000+0  65271-4 0  9993
2 46984  66.0409 288.0465 0007879 268.7614  91.2499 12.80931349139890

SENTINEL-1A             
1 39634U 14016A   23324.11633892  .00000179  00000+0  47646-4 0  9991
2 39634  98.1821 329.2402 0001281  90.0583 270.0763 14.59199871512956

HAIYANG-2C              
1 46469U 20066A   23324.11689830 -.00000002  00000+0  71941-4 0  9991
2 46469  65.9983  35.8510 0014180 276.7828  83.1626 13.83377252159740

